     2.11           N: GPS NAV DATA                         RINEX VERSION / TYPE
teqc  2019Feb25     RGS-CENTRE          20220111 11:15:01UTCPGM / RUN BY / DATE
Linux 2.4.21-27.ELsmp|Opteron|gcc -static|Linux 64|=+       COMMENT
    7.4506D-09 -1.4901D-08 -5.9605D-08  1.1921D-07          ION ALPHA
    9.0112D+04 -6.5536D+04 -1.3107D+05  4.5875D+05          ION BETA
    9.313225746155D-10 2.664535259100D-15   405504     2191 DELTA-UTC: A0,A1,T,W
                                                            END OF HEADER
21 22  1  5  1 59 44.0 1.554074697196D-04 9.094947017729D-13 0.000000000000D+00
    2.000000000000D+00 4.812500000000D+01 4.767341436049D-09 2.930153983189D+00
    2.592802047729D-06 2.446813310962D-02-3.725290298462D-07 5.153605543137D+03
    2.663840000000D+05 3.259629011154D-07-1.249742244849D+00 4.433095455170D-07
    9.589356853261D-01 3.822812500000D+02-1.032622980161D+00-8.251772290866D-09
    2.392956819114D-11 1.000000000000D+00 2.191000000000D+03 0.000000000000D+00
    2.000000000000D+00 0.000000000000D+00-1.024454832077D-08 2.000000000000D+00
    2.603100000000D+05 4.000000000000D+00
14 22  1  5  2 29 36.0-6.601121276617D-05-5.570655048359D-12 0.000000000000D+00
    7.600000000000D+01 9.906250000000D+00 4.625192657839D-09-4.785833302081D-01
    4.880130290985D-07 1.280603813939D-03 1.027621328831D-05 5.153644554138D+03
    2.681760000000D+05 3.539025783539D-08 3.057576731407D+00 3.911554813385D-08
    9.546063475061D-01 1.780937500000D+02 3.060294446987D+00-7.907829392836D-09
   -5.543088034723D-10 1.000000000000D+00 2.191000000000D+03 0.000000000000D+00
    2.000000000000D+00 0.000000000000D+00-7.916241884232D-09 5.880000000000D+02
    2.610900000000D+05 4.000000000000D+00
 1 22  1  5  2  0  0.0 4.656137898564D-04-9.890754881781D-12 0.000000000000D+00
    2.300000000000D+01 2.168750000000D+01 4.272677974188D-09 5.687717236253D-01
    1.287087798119D-06 1.122640760150D-02 6.817281246185D-07 5.153673326492D+03
    2.664000000000D+05-4.656612873077D-08-1.159931939684D+00 1.303851604462D-07
    9.863559664166D-01 3.772812500000D+02 8.842965867309D-01-8.460352407637D-09
   -9.964700784071D-11 1.000000000000D+00 2.191000000000D+03 0.000000000000D+00
    2.000000000000D+00 0.000000000000D+00 5.122274160385D-09 2.300000000000D+01
    2.634600000000D+05 4.000000000000D+00
12 22  1  5  1 59 44.0-1.510903239250D-04-5.684341886081D-12 0.000000000000D+00
    3.000000000000D+00 1.715625000000D+01 4.390182868738D-09-7.576706826766D-01
    9.890645742416D-07 8.529268088751D-03 1.046620309353D-05 5.153623279572D+03
    2.663840000000D+05-3.911554813385D-08 3.088210775803D+00 9.126961231232D-08
    9.712056035031D-01 1.889687500000D+02 1.232897246410D+00-7.866041937935D-09
   -5.925246810313D-10 1.000000000000D+00 2.191000000000D+03 0.000000000000D+00
    2.000000000000D+00 0.000000000000D+00-1.257285475731D-08 3.000000000000D+00
    2.651100000000D+05 4.000000000000D+00
31 22  1  5  2  0  0.0-1.584156416357D-04-1.818989403546D-12 0.000000000000D+00
    2.400000000000D+01 9.843750000000D+00 5.106641283536D-09-5.398323045137D-01
    7.282942533493D-07 1.046137406956D-02 5.155801773071D-06 5.153657497406D+03
    2.664000000000D+05 1.396983861923D-07 1.993934959395D+00 3.911554813385D-08
    9.548507469892D-01 2.722500000000D+02 3.625600682993D-01-8.365348450341D-09
    2.260808457461D-10 1.000000000000D+00 2.191000000000D+03 0.000000000000D+00
    2.000000000000D+00 0.000000000000D+00-1.303851604462D-08 2.400000000000D+01
    2.654100000000D+05 4.000000000000D+00
10 22  1  5  4  0  0.0-2.856622450054D-04-9.436007530894D-12 0.000000000000D+00
    5.200000000000D+01-1.478125000000D+02 4.225175995540D-09-3.788331111197D-01
   -7.763504981995D-06 7.419974892400D-03 6.141141057014D-06 5.153683502197D+03
    2.736000000000D+05 9.872019290924D-08-1.273073327586D-01 1.471489667892D-07
    9.722861162594D-01 2.662500000000D+02-2.544485615559D+00-8.171411800672D-09
   -3.796586714504D-10 1.000000000000D+00 2.191000000000D+03 0.000000000000D+00
    2.000000000000D+00 0.000000000000D+00 2.328306436539D-09 5.200000000000D+01
    2.664300000000D+05 4.000000000000D+00
12 22  1  5  3 59 44.0-1.511308364570D-04-5.684341886081D-12 0.000000000000D+00
    1.000000000000D+01 1.978125000000D+01 4.301607750658D-09 2.925575086174D-01
    8.251518011093D-07 8.529595215805D-03 1.031532883644D-05 5.153623966217D+03
    2.735840000000D+05-5.587935447693D-08 3.088154084802D+00 4.656612873077D-08
    9.712013230048D-01 1.889687500000D+02 1.232879256907D+00-7.874613723555D-09
   -6.021679398546D-10 1.000000000000D+00 2.191000000000D+03 0.000000000000D+00
    2.000000000000D+00 0.000000000000D+00-1.257285475731D-08 1.000000000000D+01
    2.664600000000D+05 4.000000000000D+00
21 22  1  5  3 59 44.0 1.554135233164D-04 9.094947017729D-13 0.000000000000D+00
    9.000000000000D+00 6.421875000000D+01 4.658765484854D-09-2.302850354229D+00
    3.878027200699D-06 2.447027422022D-02 1.769512891769D-07 5.153601175308D+03
    2.735840000000D+05 2.607703208923D-08-1.249801888020D+00 4.470348358154D-07
    9.589369361210D-01 3.745625000000D+02-1.032578700556D+00-8.152839598494D-09
    1.678641350722D-10 1.000000000000D+00 2.191000000000D+03 0.000000000000D+00
    2.000000000000D+00 0.000000000000D+00-1.024454832077D-08 9.000000000000D+00
    2.666100000000D+05 4.000000000000D+00
23 22  1  5  4  0  0.0 1.443829387426D-05-3.979039320257D-12 0.000000000000D+00
    1.900000000000D+02-1.566875000000D+02 4.368039089218D-09 9.793041541431D-01
   -8.121132850647D-06 1.963324495591D-03 5.932524800301D-06 5.153701431274D+03
    2.736000000000D+05 5.215406417847D-08-1.519421241994D-01 3.911554813385D-08
    9.673226517283D-01 2.668437500000D+02 2.898278995125D+00-8.159625595444D-09
   -3.732298322349D-10 1.000000000000D+00 2.191000000000D+03 0.000000000000D+00
    2.000000000000D+00 0.000000000000D+00-8.381903171539D-09 1.900000000000D+02
    2.666400000000D+05 4.000000000000D+00
24 22  1  5  4  0  0.0 2.769227139652D-04 5.684341886081D-13 0.000000000000D+00
    9.000000000000D+00 1.418750000000D+01 5.555945713154D-09 1.929266670089D+00
    6.351619958878D-07 1.225164381322D-02 5.640089511871D-06 5.153688171387D+03
    2.736000000000D+05-2.365559339523D-07 1.893869441961D+00-1.043081283569D-07
    9.340341658836D-01 2.575312500000D+02 7.984352650736D-01-8.495353865588D-09
    2.546534644818D-10 1.000000000000D+00 2.191000000000D+03 0.000000000000D+00
    2.000000000000D+00 0.000000000000D+00 2.328306436539D-09 9.000000000000D+00
    2.666700000000D+05 4.000000000000D+00
25 22  1  5  4  0  0.0 2.662278711796D-04 5.570655048359D-12 0.000000000000D+00
    2.100000000000D+01 8.718750000000D+00 4.685195157184D-09 7.105381115072D-02
    3.986060619354D-07 1.031050458550D-02 9.637326002121D-06 5.153726062775D+03
    2.736000000000D+05-1.490116119385D-08 3.011979246991D+00 1.285225152969D-07
    9.585819356424D-01 1.971562500000D+02 9.675289538988D-01-8.087479733136D-09
   -6.153827760199D-10 1.000000000000D+00 2.191000000000D+03 0.000000000000D+00
    2.000000000000D+00 0.000000000000D+00 5.587935447693D-09 2.100000000000D+01
    2.667000000000D+05 4.000000000000D+00
31 22  1  5  4  0  0.0-1.584286801517D-04-1.818989403546D-12 0.000000000000D+00
    2.500000000000D+01 9.031250000000D+00 5.032352474823D-09 5.103503695471D-01
    6.183981895447D-07 1.046088850126D-02 5.522742867470D-06 5.153656564713D+03
    2.736000000000D+05 7.636845111847D-08 1.993875202117D+00 1.899898052216D-07
    9.548525317492D-01 2.684375000000D+02 3.625724606783D-01-8.285345117881D-09
    1.696499237431D-10 1.000000000000D+00 2.191000000000D+03 0.000000000000D+00
    2.000000000000D+00 0.000000000000D+00-1.303851604462D-08 2.500000000000D+01
    2.667600000000D+05 4.000000000000D+00
32 22  1  5  4  0  0.0-4.556635394692D-05-5.911715561524D-12 0.000000000000D+00
    2.000000000000D+01-4.562500000000D+01 4.255177245212D-09-1.742012714142D+00
   -2.339482307434D-06 5.379545735195D-03 1.156888902187D-05 5.153762779236D+03
    2.736000000000D+05 1.043081283569D-07 9.146456342048D-01-1.117587089539D-07
    9.577660194162D-01 1.565937500000D+02-2.380223292688D+00-7.658533294367D-09
    5.364509167625D-10 1.000000000000D+00 2.191000000000D+03 0.000000000000D+00
    2.000000000000D+00 0.000000000000D+00 4.656612873077D-10 2.000000000000D+01
    2.667900000000D+05 4.000000000000D+00
 1 22  1  5  4  0  0.0 4.655425436795D-04-9.890754881781D-12 0.000000000000D+00
    2.400000000000D+01 3.362500000000D+01 4.330537527128D-09 1.619077768494D+00
    1.624226570129D-06 1.122623868287D-02 8.400529623032D-07 5.153670782089D+03
    2.736000000000D+05-2.961605787277D-07-1.159993464167D+00 6.146728992462D-08
    9.863559825087D-01 3.781875000000D+02 8.841708211265D-01-8.337490147073D-09
    5.250218692682D-11 1.000000000000D+00 2.191000000000D+03 0.000000000000D+00
    2.000000000000D+00 0.000000000000D+00 5.122274160385D-09 2.400000000000D+01
    2.668200000000D+05 4.000000000000D+00
17 22  1  5  4  0  0.0 5.570719949901D-04 5.115907697473D-12 0.000000000000D+00
    7.400000000000D+01 1.398437500000D+02 3.883018886180D-09-2.451300879184D+00
    7.331371307373D-06 1.374324969947D-02 8.316710591316D-06 5.153740879059D+03
    2.736000000000D+05 1.471489667892D-07-2.158145236029D+00 1.285225152969D-07
    9.802872219261D-01 2.282187500000D+02-1.512299765561D+00-7.542099873019D-09
    1.971510692762D-10 1.000000000000D+00 2.191000000000D+03 0.000000000000D+00
    2.000000000000D+00 0.000000000000D+00-1.117587089539D-08 7.400000000000D+01
    2.668500000000D+05 4.000000000000D+00
